{
"type": "FeatureCollection",
"name": "senyalitzacio",
"crs": { "type": "name", "properties": { "name": "urn:ogc:def:crs:OGC:1.3:CRS84" } },
"features": [
{ "type": "Feature", "properties": { "fid": 1886, "referencia": "P-50", "data_inst": null, "fabricant": null, "garantia": null, "alcada": null, "suport": "Poste", "img": "img/senyal1.png", "comentari": "Pendent revisió geometria - Prohibició parking risc inundació", "estat": "Correcte", "data_mod": null, "sim": "+345901020317654" }, "geometry": { "type": "Point", "coordinates": [ 1.929170126062817, 41.475662434957663 ] } },
{ "type": "Feature", "properties": { "fid": 1887, "referencia": "P-50", "data_inst": null, "fabricant": null, "garantia": null, "alcada": null, "suport": "Poste", "img": "img/senyal1.png", "comentari": "Pendent revisió geometria - Prohibició parking risc inundació", "estat": "Correcte", "data_mod": null, "sim": "+345901020354121" }, "geometry": { "type": "Point", "coordinates": [ 1.928355746692459, 41.474879752794173 ] } },
{ "type": "Feature", "properties": { "fid": 1888, "referencia": "P-50", "data_inst": null, "fabricant": null, "garantia": null, "alcada": null, "suport": "Poste", "img": "img/senyal1.png", "comentari": "Pendent revisió geometria - Prohibició parking risc inundació", "estat": "Correcte", "data_mod": null, "sim": "+345901020349954" }, "geometry": { "type": "Point", "coordinates": [ 1.9271693581804, 41.474162807761822 ] } },
{ "type": "Feature", "properties": { "fid": 1889, "referencia": "P-50", "data_inst": null, "fabricant": null, "garantia": null, "alcada": null, "suport": "Poste", "img": "img/senyal1.png", "comentari": "Pendent revisió geometria - Prohibició parking risc inundació", "estat": "Correcte", "data_mod": null, "sim": "+345901020345062" }, "geometry": { "type": "Point", "coordinates": [ 1.925578900946272, 41.472291847862181 ] } },
{ "type": "Feature", "properties": { "fid": 1890, "referencia": "P-50", "data_inst": null, "fabricant": null, "garantia": null, "alcada": null, "suport": "Poste", "img": "img/senyal2.png", "comentari": "Pendent revisió geometria - Tancament del gual inundable", "estat": "Correcte", "data_mod": null, "sim": "+345901020364235" }, "geometry": { "type": "Point", "coordinates": [ 1.927514512526199, 41.474953081098626 ] } },
{ "type": "Feature", "properties": { "fid": 1891, "referencia": "P-50", "data_inst": null, "fabricant": null, "garantia": null, "alcada": null, "suport": "Poste", "img": "img/senyal2.png", "comentari": "Pendent revisió geometria - Tancament del gual inundable", "estat": "Correcte", "data_mod": null, "sim": "+345901020353409" }, "geometry": { "type": "Point", "coordinates": [ 1.926957151928961, 41.474892916039479 ] } },
{ "type": "Feature", "properties": { "fid": 1892, "referencia": "P-50", "data_inst": null, "fabricant": null, "garantia": null, "alcada": null, "suport": "Poste", "img": "img/senyal2.png", "comentari": "Pendent revisió geometria - Tancament del gual inundable", "estat": "Correcte", "data_mod": null, "sim": "+345901020364235" }, "geometry": { "type": "Point", "coordinates": [ 1.925872212610388, 41.47161414614704 ] } },
{ "type": "Feature", "properties": { "fid": 1893, "referencia": "P-50", "data_inst": null, "fabricant": null, "garantia": null, "alcada": null, "suport": "Poste", "img": "img/senyal2.png", "comentari": "Pendent revisió geometria - Tancament del gual inundable", "estat": "Correcte", "data_mod": null, "sim": "+345901020354249" }, "geometry": { "type": "Point", "coordinates": [ 1.924337954363476, 41.476542024861871 ] } },
{ "type": "Feature", "properties": { "fid": 1894, "referencia": "P-50", "data_inst": null, "fabricant": null, "garantia": null, "alcada": null, "suport": "Fanal", "img": "img/senyal2.png", "comentari": "Pendent revisió geometria - Tancament del gual inundable", "estat": "Correcte", "data_mod": null, "sim": "+345901020320295" }, "geometry": { "type": "Point", "coordinates": [ 1.927420837537888, 41.476626588298636 ] } },
{ "type": "Feature", "properties": { "fid": 1895, "referencia": "P-50", "data_inst": null, "fabricant": null, "garantia": null, "alcada": null, "suport": "Fanal", "img": "img/senyal1.png", "comentari": "Pendent revisió geometria - Prohibició parking risc inundació", "estat": "Correcte", "data_mod": null, "sim": "+345901020379297" }, "geometry": { "type": "Point", "coordinates": [ 1.926145034134206, 41.474552031042975 ] } },
{ "type": "Feature", "properties": { "fid": 1896, "referencia": "P-50", "data_inst": null, "fabricant": null, "garantia": null, "alcada": null, "suport": "Fanal", "img": "img/senyal1.png", "comentari": "Pendent revisió geometria - Prohibició parking risc inundació", "estat": "Correcte", "data_mod": null, "sim": "+345901020379425" }, "geometry": { "type": "Point", "coordinates": [ 1.92523377807463, 41.475596949681908 ] } }
]
}
