{
"type": "FeatureCollection",
"name": "linies",
"crs": { "type": "name", "properties": { "name": "urn:ogc:def:crs:OGC:1.3:CRS84" } },
"features": [
{ "type": "Feature", "properties": { "fid": 58, "num_quadre": null, "num_linia": 1, "ql": null }, "geometry": { "type": "LineString", "coordinates": [ [ 1.925811369966373, 41.471802830421751 ], [ 1.925755379439469, 41.471806949731274 ], [ 1.925596655225871, 41.471900726535736 ], [ 1.925506833958331, 41.471908841726965 ], [ 1.925603765079695, 41.472019212941909 ], [ 1.925703934326784, 41.472133676611548 ], [ 1.925801522173544, 41.472245657090845 ], [ 1.925899095932135, 41.472358511062616 ], [ 1.925997266264453, 41.472469343878544 ], [ 1.926097344215274, 41.472583617194687 ] ] } },
{ "type": "Feature", "properties": { "fid": 59, "num_quadre": null, "num_linia": 3, "ql": null }, "geometry": { "type": "LineString", "coordinates": [ [ 1.925811369966373, 41.471802830421751 ], [ 1.926005779415906, 41.471815052002754 ], [ 1.926090654128315, 41.471965167537263 ], [ 1.926185836616419, 41.472069081716491 ], [ 1.9262806035516, 41.47215973319026 ], [ 1.926368915412084, 41.472230805510314 ], [ 1.926445545724629, 41.47229275242109 ], [ 1.926545677540226, 41.472365322054316 ], [ 1.92663917939617, 41.472443423261652 ], [ 1.926658435344691, 41.472601771149947 ], [ 1.926577400704151, 41.47265503168137 ], [ 1.926407206661442, 41.472712477022078 ], [ 1.92618299134598, 41.472731992440707 ] ] } },
{ "type": "Feature", "properties": { "fid": 60, "num_quadre": null, "num_linia": 4, "ql": null }, "geometry": { "type": "LineString", "coordinates": [ ] } },
{ "type": "Feature", "properties": { "fid": 61, "num_quadre": null, "num_linia": 2, "ql": null }, "geometry": { "type": "LineString", "coordinates": [ [ 1.925811369966373, 41.471802830421751 ], [ 1.92594104718483, 41.471675176647814 ], [ 1.925824787895917, 41.471601014698855 ], [ 1.925600799316327, 41.471533772788504 ], [ 1.925582715320602, 41.471378524694423 ], [ 1.925505833265316, 41.471423120251657 ], [ 1.925481925014364, 41.471327991887392 ], [ 1.92575152402875, 41.47133308124782 ], [ 1.925596398062206, 41.471209737746868 ], [ 1.925358038681723, 41.471114545441012 ], [ 1.924992744551099, 41.470924725365137 ], [ 1.924801964051213, 41.470874729999984 ], [ 1.924516272562748, 41.470756657079832 ], [ 1.924346046424292, 41.47068616717916 ], [ 1.924033790003654, 41.470555133535541 ], [ 1.923840961257904, 41.470481782467481 ], [ 1.923632681172088, 41.470377803997074 ], [ 1.925311166038171, 41.471467583447392 ], [ 1.925053407506383, 41.471624991281445 ], [ 1.925094502298397, 41.471660179554412 ], [ 1.925180086996745, 41.471778776841752 ], [ 1.925265660029776, 41.47189737395486 ], [ 1.925358513564774, 41.47201676861831 ], [ 1.925477786767281, 41.47217240319987 ], [ 1.925594831711481, 41.472307083875172 ], [ 1.925721827007772, 41.472452053631386 ], [ 1.925851807236116, 41.4726019601001 ], [ 1.925985057249563, 41.472751158354079 ], [ 1.926125119147, 41.472892565687054 ] ] } },
{ "type": "Feature", "properties": { "fid": 62, "num_quadre": null, "num_linia": 1, "ql": null }, "geometry": { "type": "LineString", "coordinates": [ [ 1.926439382397879, 41.472162698510594 ], [ 1.926043419380549, 41.471592337654215 ], [ 1.926323786216784, 41.47178180264914 ], [ 1.926942547184283, 41.472202201140142 ], [ 1.92708427164392, 41.472298766474402 ], [ 1.927194624351914, 41.472373961939056 ], [ 1.927309766947361, 41.472449931561187 ] ] } },
{ "type": "Feature", "properties": { "fid": 63, "num_quadre": null, "num_linia": 2, "ql": null }, "geometry": { "type": "LineString", "coordinates": [ [ 1.926439382397879, 41.472162698510594 ], [ 1.926816355292215, 41.47249266213143 ], [ 1.927032528402426, 41.472863428818755 ], [ 1.927216027380836, 41.473052951699835 ], [ 1.927131446403419, 41.473435279228553 ], [ 1.927505754201415, 41.473526663366172 ], [ 1.92776842033341, 41.473007634750729 ], [ 1.92780521031783, 41.472910302555832 ], [ 1.927574011682093, 41.472622543603492 ], [ 1.927420102892655, 41.472797867701672 ], [ 1.926701058857748, 41.472037654366552 ], [ 1.926572296679911, 41.471950333929087 ], [ 1.926443677051518, 41.471863104750625 ] ] } },
{ "type": "Feature", "properties": { "fid": 64, "num_quadre": null, "num_linia": 3, "ql": null }, "geometry": { "type": "LineString", "coordinates": [ [ 1.926439382397879, 41.472162698510594 ], [ 1.92689029029081, 41.47263964853785 ], [ 1.926938113833349, 41.472749110073408 ], [ 1.927183343819193, 41.472900468522347 ], [ 1.92731937620607, 41.472924714902319 ], [ 1.927183309170994, 41.473182189505799 ], [ 1.927154351469326, 41.473298347748937 ], [ 1.927554184782743, 41.473396698274165 ], [ 1.927619507575892, 41.473277996657558 ], [ 1.927695577725961, 41.473140101563686 ], [ 1.927770032756495, 41.472712138284109 ], [ 1.927686664535703, 41.472616379083547 ], [ 1.927500959684119, 41.47267399669223 ] ] } },
{ "type": "Feature", "properties": { "fid": 65, "num_quadre": null, "num_linia": 4, "ql": null }, "geometry": { "type": "LineString", "coordinates": [ [ 1.926439382397879, 41.472162698510594 ], [ 1.9259064584621, 41.471405949608815 ], [ 1.92585272358195, 41.47134101692783 ], [ 1.925837714498531, 41.471230782207996 ], [ 1.925544247563997, 41.471125955494898 ], [ 1.925284979518263, 41.47099124124373 ], [ 1.92497920841085, 41.47088170956355 ], [ 1.924792966276319, 41.470813717469099 ], [ 1.924499914540315, 41.470709589153245 ], [ 1.92426011539461, 41.470589199041981 ], [ 1.924050367438203, 41.470503238503497 ], [ 1.923939262530105, 41.470407115218975 ], [ 1.923820374919404, 41.470259674001262 ], [ 1.926183738173454, 41.471686837311381 ], [ 1.926572296679911, 41.471950333929087 ], [ 1.926824935418806, 41.472122055745075 ], [ 1.92708427164392, 41.472298766474402 ], [ 1.927441632386971, 41.472535829933982 ] ] } },
{ "type": "Feature", "properties": { "fid": 66, "num_quadre": null, "num_linia": 2, "ql": null }, "geometry": { "type": "LineString", "coordinates": [ [ 1.927080354183203, 41.47363154387142 ], [ 1.927790765006705, 41.473574627365906 ], [ 1.928010887465129, 41.473589964951124 ], [ 1.928140458084018, 41.47359945022373 ], [ 1.928321464791818, 41.473612693279961 ], [ 1.928464005410483, 41.473622929547737 ], [ 1.928630939260341, 41.473634770979146 ], [ 1.92875517970622, 41.473643584405565 ], [ 1.928903057662209, 41.47365407700822 ], [ 1.929064285805818, 41.473665504384066 ], [ 1.929215606400983, 41.473677127530351 ], [ 1.929524281703963, 41.47370050144486 ], [ 1.929626311665633, 41.473706810350791 ], [ 1.929828044856042, 41.473721090607128 ], [ 1.930030684475784, 41.473736333715749 ], [ 1.930306118196554, 41.473755820391908 ], [ 1.930432165802308, 41.473764738887589 ], [ 1.930567245138998, 41.47377429066858 ], [ 1.930669786819, 41.473781540166271 ], [ 1.930863693963224, 41.47376193244294 ], [ 1.931016538738415, 41.473790888425938 ], [ 1.931071128988599, 41.473794395215172 ] ] } }
]
}
