{
"type": "FeatureCollection",
"name": "quadres",
"crs": { "type": "name", "properties": { "name": "urn:ogc:def:crs:OGC:1.3:CRS84" } },
"features": [
{ "type": "Feature", "properties": { "fid": 14, "quadre_id": 84, "num_linies": 2, "img1": "IMG/quadres/QC_POS_20240201112731.JPG", "img2": "IMG/quadres/QC_QUA_20240207115813.JPG", "img3": "IMG/quadres/QC_LIN_20240207115830.JPG", "img4": "IMG/quadres/QC_COM_20240207115843.JPG", "comentari": null, "mem_tecnica": null, "cups_num": null, "exp_num": null, "legalitzacio": null, "tipus_control": "Telegestió" }, "geometry": { "type": "MultiPoint", "coordinates": [ [ 1.910581647744159, 41.482159182147853 ] ] } },
{ "type": "Feature", "properties": { "fid": 15, "quadre_id": 80, "num_linies": 8, "img1": "IMG/quadres/QC_POS_20240207120943.JPG", "img2": "IMG/quadres/QC_QUA_20240207131421.JPG", "img3": "IMG/quadres/QC_LIN_20240207131438.JPG", "img4": "IMG/quadres/QC_COM_20240207131501.JPG", "comentari": null, "mem_tecnica": null, "cups_num": null, "exp_num": null, "legalitzacio": null, "tipus_control": "Telegestió" }, "geometry": { "type": "MultiPoint", "coordinates": [ [ 1.91093147689642, 41.481614545772196 ] ] } },
{ "type": "Feature", "properties": { "fid": 16, "quadre_id": 81, "num_linies": 8, "img1": "IMG/quadres/QC_POS_20240207121258.JPG", "img2": "IMG/quadres/QC_QUA_20240207122536.JPG", "img3": null, "img4": null, "comentari": null, "mem_tecnica": null, "cups_num": null, "exp_num": null, "legalitzacio": null, "tipus_control": "Telegestió" }, "geometry": { "type": "MultiPoint", "coordinates": [ [ 1.911255696910312, 41.480040735696498 ] ] } },
{ "type": "Feature", "properties": { "fid": 17, "quadre_id": 82, "num_linies": 8, "img1": "IMG/quadres/QC_POS_20240202125257.JPG", "img2": "IMG/quadres/QC_QUA_20240207124003014.JPG", "img3": "IMG/quadres/QC_LIN_20240207124016.JPG", "img4": "IMG/quadres/QC_COM_20240207124029.JPG", "comentari": "Cal tornar a fer foto al quadre", "mem_tecnica": null, "cups_num": null, "exp_num": null, "legalitzacio": null, "tipus_control": "Telegestió" }, "geometry": { "type": "MultiPoint", "coordinates": [ [ 1.911524847145542, 41.478746284695461 ] ] } },
{ "type": "Feature", "properties": { "fid": 19, "quadre_id": 85, "num_linies": 2, "img1": "IMG/quadres/QC_POS_20240829114413.JPG", "img2": "IMG/quadres/QC_QUA_20240207125241.JPG", "img3": "IMG/quadres/QC_LIN_20240207125252.JPG", "img4": "IMG/quadres/QC_COM_20240207125301.JPG", "comentari": "CONFIRMAR MEMÒRIA FOTOGRÀFICA", "mem_tecnica": null, "cups_num": null, "exp_num": null, "legalitzacio": null, "tipus_control": "Telegestió" }, "geometry": { "type": "MultiPoint", "coordinates": [ [ 1.910924317350025, 41.4785018607148 ] ] } },
{ "type": "Feature", "properties": { "fid": 20, "quadre_id": 86, "num_linies": 2, "img1": "IMG/quadres/QC_POS_20240829114413.jpg", "img2": "IMG/quadres/QC_QUA_20240207130122.JPG", "img3": "IMG/quadres/QC_LIN_20240207130131.JPG", "img4": "IMG/quadres/QC_COM_20240207130143.JPG", "comentari": "P2 Federica Montseny", "mem_tecnica": null, "cups_num": null, "exp_num": null, "legalitzacio": null, "tipus_control": "Telegestió" }, "geometry": { "type": "MultiPoint", "coordinates": [ [ 1.910669931611533, 41.479741085018219 ] ] } },
{ "type": "Feature", "properties": { "fid": 21, "quadre_id": 87, "num_linies": 2, "img1": null, "img2": "IMG/quadres/QC_QUA_20240207130635.JPG", "img3": "IMG/quadres/QC_LIN_20240207130644.JPG", "img4": "IMG/quadres/QC_COM_20240207130654.JPG", "comentari": "FALTA IMATGE POSICIÓ", "mem_tecnica": null, "cups_num": null, "exp_num": null, "legalitzacio": null, "tipus_control": "Telegestió" }, "geometry": { "type": "MultiPoint", "coordinates": [ [ 1.910344761187405, 41.481291949922614 ] ] } },
{ "type": "Feature", "properties": { "fid": 23, "quadre_id": 1, "num_linies": 4, "img1": "IMG/quadres/QC_POS_20240813085623.jpg", "img2": "IMG/quadres/QC_QUA_20240813085713.jpg", "img3": "IMG/quadres/QC_LIN_20240813085724.jpg", "img4": "IMG/quadres/QC_COM_20240813085735.jpg", "comentari": "L4 - Riu de Sons", "mem_tecnica": null, "cups_num": "ES0031408042116001BH0F", "exp_num": "98-2021-1000319305", "legalitzacio": "No legalitzat", "tipus_control": "Cèdula" }, "geometry": { "type": "MultiPoint", "coordinates": [ [ 1.925811369966373, 41.471802830421751 ] ] } },
{ "type": "Feature", "properties": { "fid": 24, "quadre_id": 2, "num_linies": 4, "img1": "IMG/quadres/QC_POS_20240813083654.jpg", "img2": "IMG/quadres/QC_QUA_20240813083744.jpg", "img3": "IMG/quadres/QC_LIN_20240813083753.jpg", "img4": "IMG/quadres/QC_COM_20240813083800.jpg", "comentari": null, "mem_tecnica": null, "cups_num": "ES0031405787320001MW0F", "exp_num": "98-2021-1000319304", "legalitzacio": "No legalitzat", "tipus_control": "Cèdula" }, "geometry": { "type": "MultiPoint", "coordinates": [ [ 1.926439382397879, 41.472162698510594 ] ] } },
{ "type": "Feature", "properties": { "fid": 25, "quadre_id": 3, "num_linies": 2, "img1": "IMG/quadres/QC_POS_20240813143243.jpg", "img2": "IMG/quadres/QC_QUA_20240813143354.jpg", "img3": "IMG/quadres/QC_LIN_20240813143417.jpg", "img4": "IMG/quadres/QC_COM_20240813143314.jpg", "comentari": null, "mem_tecnica": null, "cups_num": "ES0031408415531001EJ0F", "exp_num": null, "legalitzacio": null, "tipus_control": "Cèdula" }, "geometry": { "type": "MultiPoint", "coordinates": [ [ 1.927080354183203, 41.47363154387142 ] ] } },
{ "type": "Feature", "properties": { "fid": 28, "quadre_id": 4, "num_linies": 2, "img1": "IMG/quadres/QC_POS_20240827092334.jpg", "img2": null, "img3": null, "img4": null, "comentari": "Comentar clau", "mem_tecnica": null, "cups_num": "ES0031405788130001DB0F", "exp_num": "98-2021-1000319326", "legalitzacio": "No legalitzat", "tipus_control": "Cèdula" }, "geometry": { "type": "MultiPoint", "coordinates": [ [ 1.927798599137949, 41.472578300387738 ] ] } },
{ "type": "Feature", "properties": { "fid": 29, "quadre_id": 5, "num_linies": 2, "img1": null, "img2": null, "img3": null, "img4": null, "comentari": null, "mem_tecnica": null, "cups_num": "ES0031405821188001CL0F", "exp_num": "98-2021-1000317760", "legalitzacio": "No legalitzat", "tipus_control": null }, "geometry": { "type": "MultiPoint", "coordinates": [ [ 1.928248434732901, 41.474462927671098 ] ] } },
{ "type": "Feature", "properties": { "fid": 30, "quadre_id": 6, "num_linies": 2, "img1": null, "img2": null, "img3": null, "img4": null, "comentari": null, "mem_tecnica": null, "cups_num": "ES0031405886323001XP0F", "exp_num": "98-2021-1000319284", "legalitzacio": "No legalitzat", "tipus_control": "Cèdula" }, "geometry": { "type": "MultiPoint", "coordinates": [ [ 1.928267279215378, 41.475768829679929 ] ] } },
{ "type": "Feature", "properties": { "fid": 31, "quadre_id": 7, "num_linies": 2, "img1": "IMG/quadres/QC_POS_20240827082616.jpg", "img2": null, "img3": null, "img4": null, "comentari": null, "mem_tecnica": "IMG/other/M T S q7 - CAT_montada.pdf", "cups_num": "ES0031405908681001WF0F", "exp_num": "98-2021-1000319265", "legalitzacio": "No legalitzat", "tipus_control": "Cèdula" }, "geometry": { "type": "MultiPoint", "coordinates": [ [ 1.930422299038829, 41.472663840833157 ] ] } },
{ "type": "Feature", "properties": { "fid": 32, "quadre_id": 8, "num_linies": 8, "img1": "IMG/quadres/QC_POS_20240823080717.JPG", "img2": null, "img3": "IMG/quadres/QC_LIN_20240823083524.JPG", "img4": null, "comentari": null, "mem_tecnica": null, "cups_num": "ES0031405915856001DL0F", "exp_num": "98-2021-1000319286", "legalitzacio": "No legalitzat", "tipus_control": "Cèdula" }, "geometry": { "type": "MultiPoint", "coordinates": [ [ 1.932098644220162, 41.473330987524413 ] ] } },
{ "type": "Feature", "properties": { "fid": 34, "quadre_id": 10, "num_linies": 2, "img1": null, "img2": null, "img3": null, "img4": null, "comentari": "sota l'escala", "mem_tecnica": null, "cups_num": "ES0031405908486001BR0F", "exp_num": "98-2021-1000319300", "legalitzacio": "No legalitzat", "tipus_control": "Cèdula" }, "geometry": { "type": "MultiPoint", "coordinates": [ [ 1.937904267647051, 41.473262406009809 ] ] } },
{ "type": "Feature", "properties": { "fid": 35, "quadre_id": 11, "num_linies": 2, "img1": null, "img2": null, "img3": null, "img4": null, "comentari": "", "mem_tecnica": null, "cups_num": "ES0031408123523001EJ0F", "exp_num": "98-2021-1000319332", "legalitzacio": "No legalitzat", "tipus_control": "Cèdula" }, "geometry": { "type": "MultiPoint", "coordinates": [ [ 1.936571889849398, 41.475363974256979 ] ] } },
{ "type": "Feature", "properties": { "fid": 36, "quadre_id": 13, "num_linies": 2, "img1": null, "img2": null, "img3": null, "img4": null, "comentari": null, "mem_tecnica": null, "cups_num": "ES0031405787836001ZC0F", "exp_num": "98-2021-1000319303", "legalitzacio": "No legalitzat", "tipus_control": "Cèdula" }, "geometry": { "type": "MultiPoint", "coordinates": [ [ 1.932264584004458, 41.475050426664389 ] ] } },
{ "type": "Feature", "properties": { "fid": 37, "quadre_id": 14, "num_linies": 2, "img1": null, "img2": null, "img3": null, "img4": null, "comentari": null, "mem_tecnica": null, "cups_num": "ES0031405937039001CL0F", "exp_num": "98-2021-1000319270", "legalitzacio": "No legalitzat", "tipus_control": "Cèdula" }, "geometry": { "type": "MultiPoint", "coordinates": [ [ 1.926248416948614, 41.477750920530887 ] ] } },
{ "type": "Feature", "properties": { "fid": 38, "quadre_id": 15, "num_linies": 2, "img1": "IMG/quadres/QC_POS_20240926085804.jpg", "img2": null, "img3": null, "img4": null, "comentari": "porta trencada", "mem_tecnica": null, "cups_num": "ES0031405566439002HD0F", "exp_num": "98-2021-1000319289", "legalitzacio": "No legalitzat", "tipus_control": "Cèdula" }, "geometry": { "type": "MultiPoint", "coordinates": [ [ 1.923728748075103, 41.476121116735776 ] ] } },
{ "type": "Feature", "properties": { "fid": 39, "quadre_id": 16, "num_linies": 2, "img1": null, "img2": null, "img3": null, "img4": null, "comentari": null, "mem_tecnica": null, "cups_num": "ES0031408026086001RY0F", "exp_num": null, "legalitzacio": "Legalitzat", "tipus_control": "Cèdula" }, "geometry": { "type": "MultiPoint", "coordinates": [ [ 1.923604863211853, 41.476310860111447 ] ] } },
{ "type": "Feature", "properties": { "fid": 40, "quadre_id": 17, "num_linies": 6, "img1": null, "img2": null, "img3": null, "img4": null, "comentari": null, "mem_tecnica": null, "cups_num": "ES0031405897136001CH0F", "exp_num": "98-2021-1000319313", "legalitzacio": "No legalitzat", "tipus_control": "Cèdula" }, "geometry": { "type": "MultiPoint", "coordinates": [ [ 1.920652365365844, 41.475782053885474 ] ] } },
{ "type": "Feature", "properties": { "fid": 41, "quadre_id": 18, "num_linies": 2, "img1": null, "img2": null, "img3": null, "img4": null, "comentari": null, "mem_tecnica": null, "cups_num": "ES0031405869256001SC0F", "exp_num": null, "legalitzacio": null, "tipus_control": "Cèdula" }, "geometry": { "type": "MultiPoint", "coordinates": [ [ 1.923159740717664, 41.47762448958364 ] ] } },
{ "type": "Feature", "properties": { "fid": 42, "quadre_id": 19, "num_linies": 2, "img1": null, "img2": null, "img3": null, "img4": null, "comentari": null, "mem_tecnica": null, "cups_num": "ES0031405786637001WX0F", "exp_num": "98-2021-1000319276", "legalitzacio": "No legalitzat", "tipus_control": "Cèdula" }, "geometry": { "type": "MultiPoint", "coordinates": [ [ 1.922419311222986, 41.479223920694302 ] ] } },
{ "type": "Feature", "properties": { "fid": 43, "quadre_id": 20, "num_linies": 2, "img1": null, "img2": null, "img3": null, "img4": null, "comentari": null, "mem_tecnica": null, "cups_num": "ES0031405921943001RT0F", "exp_num": "98-2021-1000319309", "legalitzacio": "No legalitzat", "tipus_control": "Cèdula" }, "geometry": { "type": "MultiPoint", "coordinates": [ [ 1.92396040237525, 41.478662786779346 ] ] } },
{ "type": "Feature", "properties": { "fid": 44, "quadre_id": 21, "num_linies": null, "img1": null, "img2": null, "img3": null, "img4": null, "comentari": null, "mem_tecnica": null, "cups_num": null, "exp_num": null, "legalitzacio": null, "tipus_control": null }, "geometry": { "type": "MultiPoint", "coordinates": [ [ 1.922148072141133, 41.475860201214303 ] ] } },
{ "type": "Feature", "properties": { "fid": 45, "quadre_id": 22, "num_linies": 5, "img1": null, "img2": null, "img3": null, "img4": null, "comentari": null, "mem_tecnica": null, "cups_num": "ES0031405786953001XJ0F", "exp_num": "98-2021-1000317757", "legalitzacio": "No legalitzat", "tipus_control": "Cèdula" }, "geometry": { "type": "MultiPoint", "coordinates": [ [ 1.921257843304843, 41.47446186776245 ] ] } },
{ "type": "Feature", "properties": { "fid": 46, "quadre_id": 23, "num_linies": 3, "img1": null, "img2": null, "img3": null, "img4": null, "comentari": null, "mem_tecnica": null, "cups_num": "ES0031405864031001NE0F", "exp_num": "98-2021-1000319317", "legalitzacio": "No legalitzat", "tipus_control": "Telegestió" }, "geometry": { "type": "MultiPoint", "coordinates": [ [ 1.919800374459374, 41.472704753126465 ] ] } },
{ "type": "Feature", "properties": { "fid": 47, "quadre_id": 24, "num_linies": 2, "img1": null, "img2": null, "img3": null, "img4": null, "comentari": null, "mem_tecnica": null, "cups_num": "ES0031405870595001CY0F", "exp_num": "98-2021-1000319282", "legalitzacio": "No legalitzat", "tipus_control": "Telegestió" }, "geometry": { "type": "MultiPoint", "coordinates": [ [ 1.917866311705859, 41.473023484642503 ] ] } },
{ "type": "Feature", "properties": { "fid": 48, "quadre_id": 25, "num_linies": 5, "img1": null, "img2": null, "img3": null, "img4": null, "comentari": "Falten imatges, segons el maps(si es corecte) mostra que esta adjunt a un edifici (prop d'un parc)", "mem_tecnica": null, "cups_num": null, "exp_num": "98-2021-1000319324", "legalitzacio": "No legalitzat", "tipus_control": "Telegestió" }, "geometry": { "type": "MultiPoint", "coordinates": [ [ 1.92019672420223, 41.473959127804861 ] ] } },
{ "type": "Feature", "properties": { "fid": 49, "quadre_id": 26, "num_linies": 2, "img1": null, "img2": null, "img3": null, "img4": null, "comentari": null, "mem_tecnica": null, "cups_num": "ES0031405907888001RR0F", "exp_num": null, "legalitzacio": null, "tipus_control": "Telegestió" }, "geometry": { "type": "MultiPoint", "coordinates": [ [ 1.920817246904347, 41.474672146115054 ] ] } },
{ "type": "Feature", "properties": { "fid": 50, "quadre_id": 28, "num_linies": 2, "img1": "IMG/quadres/QC_POS_20240912083514.jpg", "img2": "IMG/quadres/QC_QUA_20240912083548.jpg", "img3": "IMG/quadres/QC_LIN_20240912083554.jpg", "img4": "IMG/quadres/QC_COM_20240912083559.jpg", "comentari": null, "mem_tecnica": null, "cups_num": "ES0031405786572001MP0F", "exp_num": "98-2021-1000319266", "legalitzacio": "No legalitzat", "tipus_control": "Cèdula" }, "geometry": { "type": "MultiPoint", "coordinates": [ [ 1.917245323861051, 41.475187839975646 ] ] } },
{ "type": "Feature", "properties": { "fid": 51, "quadre_id": 29, "num_linies": 2, "img1": null, "img2": null, "img3": null, "img4": null, "comentari": null, "mem_tecnica": null, "cups_num": "ES0031405882062001ZB0F", "exp_num": "98-2021-1000319268", "legalitzacio": "No legalitzat", "tipus_control": "Cèdula" }, "geometry": { "type": "MultiPoint", "coordinates": [ [ 1.91522001100678, 41.473796683006007 ] ] } },
{ "type": "Feature", "properties": { "fid": 52, "quadre_id": 30, "num_linies": 2, "img1": null, "img2": null, "img3": null, "img4": null, "comentari": null, "mem_tecnica": null, "cups_num": "ES0031405786573001WL0F", "exp_num": "98-2021-1000319307", "legalitzacio": "No legalitzat", "tipus_control": "Cèdula" }, "geometry": { "type": "MultiPoint", "coordinates": [ [ 1.912002399129985, 41.474380684168331 ] ] } },
{ "type": "Feature", "properties": { "fid": 53, "quadre_id": 31, "num_linies": 2, "img1": null, "img2": null, "img3": null, "img4": null, "comentari": null, "mem_tecnica": null, "cups_num": "ES0031405933050001YR0F", "exp_num": "98-2021-1000319319", "legalitzacio": "No legalitzat", "tipus_control": "Cèdula" }, "geometry": { "type": "MultiPoint", "coordinates": [ [ 1.913654889832214, 41.476005955824135 ] ] } },
{ "type": "Feature", "properties": { "fid": 54, "quadre_id": 32, "num_linies": 2, "img1": null, "img2": null, "img3": null, "img4": null, "comentari": null, "mem_tecnica": null, "cups_num": "ES0031405933047001JZ0F", "exp_num": "98-2021-1000319301", "legalitzacio": "No legalitzat", "tipus_control": "Cèdula" }, "geometry": { "type": "MultiPoint", "coordinates": [ [ 1.911242531536834, 41.477689484802355 ] ] } },
{ "type": "Feature", "properties": { "fid": 55, "quadre_id": 33, "num_linies": 2, "img1": null, "img2": null, "img3": null, "img4": null, "comentari": null, "mem_tecnica": null, "cups_num": "ES0031405933099001CB0F", "exp_num": "98-2021-1000319275", "legalitzacio": "No legalitzat", "tipus_control": "Cèdula" }, "geometry": { "type": "MultiPoint", "coordinates": [ [ 1.915434648345326, 41.47726461326436 ] ] } },
{ "type": "Feature", "properties": { "fid": 56, "quadre_id": 34, "num_linies": 2, "img1": null, "img2": null, "img3": null, "img4": null, "comentari": "Al costat d'un parc - muralla fecsa", "mem_tecnica": null, "cups_num": "ES0031405933093001NZ0F", "exp_num": "98-2021-1000319274", "legalitzacio": "No legalitzat", "tipus_control": "Cèdula" }, "geometry": { "type": "MultiPoint", "coordinates": [ [ 1.91475425302065, 41.47724746591183 ] ] } },
{ "type": "Feature", "properties": { "fid": 57, "quadre_id": 35, "num_linies": 2, "img1": null, "img2": null, "img3": null, "img4": null, "comentari": null, "mem_tecnica": null, "cups_num": "ES0031405933097001WN0F", "exp_num": "98-2021-1000319278", "legalitzacio": "No legalitzat", "tipus_control": "Cèdula" }, "geometry": { "type": "MultiPoint", "coordinates": [ [ 1.916826710870625, 41.476211709495743 ] ] } },
{ "type": "Feature", "properties": { "fid": 58, "quadre_id": 36, "num_linies": 2, "img1": "IMG/quadres/QC_POS_20240909101859.jpg", "img2": "IMG/quadres/QC_QUA_20240909102015.jpg", "img3": null, "img4": null, "comentari": "Cal preguntar si es aquest, te altar candau ", "mem_tecnica": null, "cups_num": "ES0031405832032001EW0F", "exp_num": "98-2021-1000319279", "legalitzacio": "No legalitzat", "tipus_control": "Cèdula" }, "geometry": { "type": "MultiPoint", "coordinates": [ [ 1.914767737346996, 41.480484619156307 ] ] } },
{ "type": "Feature", "properties": { "fid": 59, "quadre_id": 37, "num_linies": 2, "img1": null, "img2": null, "img3": null, "img4": null, "comentari": null, "mem_tecnica": null, "cups_num": "ES0031405871420001DL0F", "exp_num": "98-2021-1000317761", "legalitzacio": "No legalitzat", "tipus_control": "Cèdula" }, "geometry": { "type": "MultiPoint", "coordinates": [ [ 1.91260089077387, 41.482386337976543 ] ] } },
{ "type": "Feature", "properties": { "fid": 60, "quadre_id": 38, "num_linies": 2, "img1": null, "img2": null, "img3": null, "img4": null, "comentari": "Adjunt al pavelló municipal - símbols d'electrecitat", "mem_tecnica": null, "cups_num": null, "exp_num": null, "legalitzacio": null, "tipus_control": "Telegestió" }, "geometry": { "type": "MultiPoint", "coordinates": [ [ 1.913944640235072, 41.485568435222298 ] ] } },
{ "type": "Feature", "properties": { "fid": 61, "quadre_id": 39, "num_linies": 2, "img1": null, "img2": null, "img3": null, "img4": null, "comentari": null, "mem_tecnica": null, "cups_num": "ES0031405874601001SG0F", "exp_num": "98-2021-1000317754", "legalitzacio": "No legalitzat", "tipus_control": "Telegestió" }, "geometry": { "type": "MultiPoint", "coordinates": [ [ 1.910055815372687, 41.486565860909216 ] ] } },
{ "type": "Feature", "properties": { "fid": 62, "quadre_id": 40, "num_linies": 2, "img1": "IMG/quadres/QC_POS_20240902100334.jpg", "img2": null, "img3": null, "img4": null, "comentari": "NO OBRE PORTA", "mem_tecnica": null, "cups_num": "ES0031405871684001BW0F", "exp_num": "98-2021-1000319315", "legalitzacio": "No legalitzat", "tipus_control": "Cèdula" }, "geometry": { "type": "MultiPoint", "coordinates": [ [ 1.917804360635482, 41.482453479377547 ] ] } },
{ "type": "Feature", "properties": { "fid": 63, "quadre_id": 42, "num_linies": 2, "img1": null, "img2": null, "img3": null, "img4": null, "comentari": null, "mem_tecnica": null, "cups_num": "ES0031405566520002KA0F", "exp_num": "98-2021-1000319292", "legalitzacio": "No legalitzat", "tipus_control": "Cèdula" }, "geometry": { "type": "MultiPoint", "coordinates": [ [ 1.918854498988824, 41.485480948393707 ] ] } },
{ "type": "Feature", "properties": { "fid": 64, "quadre_id": 43, "num_linies": 2, "img1": null, "img2": null, "img3": null, "img4": null, "comentari": null, "mem_tecnica": null, "cups_num": "ES0031405786760001ZY0F", "exp_num": null, "legalitzacio": "Legalitzat", "tipus_control": "Cèdula" }, "geometry": { "type": "MultiPoint", "coordinates": [ [ 1.920263881130316, 41.481363903017503 ] ] } },
{ "type": "Feature", "properties": { "fid": 65, "quadre_id": 44, "num_linies": 2, "img1": null, "img2": null, "img3": null, "img4": null, "comentari": null, "mem_tecnica": null, "cups_num": "ES0031405853157001HP0F", "exp_num": null, "legalitzacio": null, "tipus_control": "Cèdula" }, "geometry": { "type": "MultiPoint", "coordinates": [ [ 1.918146208669428, 41.480630338060102 ] ] } },
{ "type": "Feature", "properties": { "fid": 66, "quadre_id": 45, "num_linies": 2, "img1": null, "img2": null, "img3": null, "img4": null, "comentari": null, "mem_tecnica": null, "cups_num": "ES0031405786584001KW0F", "exp_num": "98-2021-1000317765", "legalitzacio": "No legalitzat", "tipus_control": "Cèdula" }, "geometry": { "type": "MultiPoint", "coordinates": [ [ 1.919854496775484, 41.478559740939822 ] ] } },
{ "type": "Feature", "properties": { "fid": 67, "quadre_id": 46, "num_linies": 2, "img1": null, "img2": null, "img3": null, "img4": null, "comentari": null, "mem_tecnica": null, "cups_num": "ES0031405786916001BC0F", "exp_num": "98-2021-1000319267", "legalitzacio": "No legalitzat", "tipus_control": "Cèdula" }, "geometry": { "type": "MultiPoint", "coordinates": [ [ 1.917913747458336, 41.479296919465909 ] ] } },
{ "type": "Feature", "properties": { "fid": 68, "quadre_id": 47, "num_linies": 2, "img1": null, "img2": null, "img3": null, "img4": null, "comentari": null, "mem_tecnica": null, "cups_num": "ES0031405787905001RC0F", "exp_num": null, "legalitzacio": null, "tipus_control": "Cèdula" }, "geometry": { "type": "MultiPoint", "coordinates": [ [ 1.91987780381539, 41.476994937405095 ] ] } },
{ "type": "Feature", "properties": { "fid": 69, "quadre_id": 48, "num_linies": 3, "img1": null, "img2": null, "img3": null, "img4": null, "comentari": null, "mem_tecnica": null, "cups_num": "ES0031405787157001WA0F", "exp_num": "98-2021-1000319273", "legalitzacio": "No legalitzat", "tipus_control": "Cèdula" }, "geometry": { "type": "MultiPoint", "coordinates": [ [ 1.927508910692644, 41.481541784261871 ] ] } },
{ "type": "Feature", "properties": { "fid": 70, "quadre_id": 49, "num_linies": 3, "img1": "IMG/quadres/QC_POS_20240813080124.jpg", "img2": null, "img3": null, "img4": null, "comentari": "No obre clau donada, revisio linies", "mem_tecnica": null, "cups_num": null, "exp_num": null, "legalitzacio": null, "tipus_control": "Cèdula" }, "geometry": { "type": "MultiPoint", "coordinates": [ [ 1.947810765071991, 41.46492284202494 ] ] } },
{ "type": "Feature", "properties": { "fid": 71, "quadre_id": 50, "num_linies": 2, "img1": "IMG/quadres/QC_POS_20240813081556.jpg", "img2": null, "img3": null, "img4": null, "comentari": null, "mem_tecnica": null, "cups_num": "ES0031405867899002XK0F", "exp_num": "98-2021-1000317762", "legalitzacio": "No legalitzat", "tipus_control": "Cèdula" }, "geometry": { "type": "MultiPoint", "coordinates": [ [ 1.950374909967791, 41.464612279793592 ] ] } },
{ "type": "Feature", "properties": { "fid": 72, "quadre_id": 51, "num_linies": 2, "img1": null, "img2": null, "img3": null, "img4": null, "comentari": null, "mem_tecnica": null, "cups_num": "ES0031405868924001WW0F", "exp_num": null, "legalitzacio": "Legalitzat", "tipus_control": "Cèdula" }, "geometry": { "type": "MultiPoint", "coordinates": [ [ 1.921024890562803, 41.497876731649853 ] ] } },
{ "type": "Feature", "properties": { "fid": 73, "quadre_id": 55, "num_linies": 2, "img1": null, "img2": null, "img3": null, "img4": null, "comentari": "PLÀNOL MOSTRA AQUESTA UBICACIÓ, CAL CONFIRMAR ET 21060", "mem_tecnica": null, "cups_num": "ES0031405896521001FS0F", "exp_num": null, "legalitzacio": null, "tipus_control": "Cèdula" }, "geometry": { "type": "MultiPoint", "coordinates": [ [ 1.924894298501007, 41.479515843423016 ] ] } },
{ "type": "Feature", "properties": { "fid": 74, "quadre_id": 89, "num_linies": 2, "img1": null, "img2": null, "img3": null, "img4": null, "comentari": "SEGONS CONSUMS, ESTÀ AL COSTAT D'UNA ET N7387", "mem_tecnica": null, "cups_num": null, "exp_num": "98-2021-1000319288", "legalitzacio": "No legalitzat", "tipus_control": "Cèdula" }, "geometry": { "type": "MultiPoint", "coordinates": [ [ 1.924358143999368, 41.479308137175479 ] ] } },
{ "type": "Feature", "properties": { "fid": 75, "quadre_id": 56, "num_linies": 2, "img1": null, "img2": null, "img3": null, "img4": null, "comentari": "Fa cantonada, esta al costat del contenidor de roba", "mem_tecnica": null, "cups_num": "ES0031408304070001SA0F", "exp_num": "98-2021-1000319287", "legalitzacio": "No legalitzat", "tipus_control": null }, "geometry": { "type": "MultiPoint", "coordinates": [ [ 1.924923937562895, 41.478593068073884 ] ] } },
{ "type": "Feature", "properties": { "fid": 76, "quadre_id": 57, "num_linies": 2, "img1": null, "img2": null, "img3": null, "img4": null, "comentari": "Fa cantonada, esta al costat d'un edifici amb valles", "mem_tecnica": null, "cups_num": "ES0031408186564001WZ0F", "exp_num": "98-2021-1000319297", "legalitzacio": "No legalitzat", "tipus_control": "Cèdula" }, "geometry": { "type": "MultiPoint", "coordinates": [ [ 1.924709023204221, 41.477904349869931 ] ] } },
{ "type": "Feature", "properties": { "fid": 77, "quadre_id": 58, "num_linies": 2, "img1": null, "img2": null, "img3": null, "img4": null, "comentari": null, "mem_tecnica": null, "cups_num": null, "exp_num": null, "legalitzacio": null, "tipus_control": "Cèdula" }, "geometry": { "type": "MultiPoint", "coordinates": [ [ 1.936544731896603, 41.47541092500844 ] ] } },
{ "type": "Feature", "properties": { "fid": 78, "quadre_id": 88, "num_linies": 1, "img1": null, "img2": null, "img3": null, "img4": null, "comentari": null, "mem_tecnica": null, "cups_num": "ES0031405786762003DF0F", "exp_num": null, "legalitzacio": null, "tipus_control": "Cèdula" }, "geometry": { "type": "MultiPoint", "coordinates": [ [ 1.911515546923665, 41.494963866749373 ] ] } },
{ "type": "Feature", "properties": { "fid": 80, "quadre_id": 72, "num_linies": 2, "img1": null, "img2": null, "img3": null, "img4": null, "comentari": null, "mem_tecnica": null, "cups_num": "ES0031408345295001QX0F", "exp_num": "98-2021-1000317764", "legalitzacio": "No legalitzat", "tipus_control": "Cèdula" }, "geometry": { "type": "MultiPoint", "coordinates": [ [ 1.913952328181183, 41.491922849223386 ] ] } },
{ "type": "Feature", "properties": { "fid": 81, "quadre_id": 59, "num_linies": 3, "img1": null, "img2": null, "img3": null, "img4": null, "comentari": null, "mem_tecnica": null, "cups_num": "ES0031405787784001PT0F", "exp_num": "98-2021-1000319323", "legalitzacio": "No legalitzat", "tipus_control": "Cèdula" }, "geometry": { "type": "MultiPoint", "coordinates": [ [ 1.927477215386261, 41.47371967893173 ] ] } },
{ "type": "Feature", "properties": { "fid": 82, "quadre_id": 67, "num_linies": 2, "img1": "IMG/quadres/QC_POS_20240902074028.jpg", "img2": "IMG/quadres/QC_QUA_20240902074134.jpg", "img3": "IMG/quadres/QC_LIN_20240902074217.jpg", "img4": null, "comentari": null, "mem_tecnica": null, "cups_num": "ES0031408154186001RB0F", "exp_num": "98-2021-1000319271", "legalitzacio": "No legalitzat", "tipus_control": "Telegestió" }, "geometry": { "type": "MultiPoint", "coordinates": [ [ 1.905978358996916, 41.498686740899252 ] ] } },
{ "type": "Feature", "properties": { "fid": 89, "quadre_id": 9, "num_linies": 2, "img1": null, "img2": null, "img3": null, "img4": null, "comentari": "CAL CERCAR EL CUPS", "mem_tecnica": null, "cups_num": null, "exp_num": null, "legalitzacio": null, "tipus_control": "Cèdula" }, "geometry": { "type": "MultiPoint", "coordinates": [ [ 1.937691911976154, 41.472952855960429 ] ] } },
{ "type": "Feature", "properties": { "fid": 90, "quadre_id": 68, "num_linies": 2, "img1": null, "img2": null, "img3": null, "img4": null, "comentari": null, "mem_tecnica": null, "cups_num": "ES0031408154166001MK0F", "exp_num": "98-2021-1000319272", "legalitzacio": "No legalitzat", "tipus_control": "Telegestió" }, "geometry": { "type": "MultiPoint", "coordinates": [ [ 1.908247461457355, 41.492943208897344 ] ] } },
{ "type": "Feature", "properties": { "fid": 92, "quadre_id": 27, "num_linies": 2, "img1": null, "img2": null, "img3": null, "img4": null, "comentari": null, "mem_tecnica": null, "cups_num": "ES0031405842496002SS0F", "exp_num": null, "legalitzacio": null, "tipus_control": "Cèdula" }, "geometry": { "type": "MultiPoint", "coordinates": [ [ 1.917077867216611, 41.473697865909621 ] ] } },
{ "type": "Feature", "properties": { "fid": 93, "quadre_id": 90, "num_linies": 2, "img1": null, "img2": null, "img3": null, "img4": null, "comentari": null, "mem_tecnica": null, "cups_num": "ES0031408021586001XW0F", "exp_num": null, "legalitzacio": null, "tipus_control": "Cèdula" }, "geometry": { "type": "MultiPoint", "coordinates": [ [ 1.92754134387966, 41.48061683123148 ] ] } },
{ "type": "Feature", "properties": { "fid": 94, "quadre_id": 79, "num_linies": 8, "img1": null, "img2": null, "img3": null, "img4": null, "comentari": null, "mem_tecnica": null, "cups_num": null, "exp_num": null, "legalitzacio": null, "tipus_control": "Telegestió" }, "geometry": { "type": "MultiPoint", "coordinates": [ [ 1.916853202428788, 41.479686128658564 ] ] } },
{ "type": "Feature", "properties": { "fid": 95, "quadre_id": 62, "num_linies": 4, "img1": null, "img2": null, "img3": null, "img4": null, "comentari": null, "mem_tecnica": null, "cups_num": null, "exp_num": null, "legalitzacio": null, "tipus_control": "Cèdula" }, "geometry": { "type": "MultiPoint", "coordinates": [ [ 1.911185624481784, 41.495792183277644 ] ] } },
{ "type": "Feature", "properties": { "fid": 96, "quadre_id": 54, "num_linies": null, "img1": null, "img2": null, "img3": null, "img4": null, "comentari": null, "mem_tecnica": null, "cups_num": null, "exp_num": null, "legalitzacio": null, "tipus_control": "Cèdula" }, "geometry": { "type": "MultiPoint", "coordinates": [ [ 1.914548207525371, 41.488360936542463 ] ] } },
{ "type": "Feature", "properties": { "fid": 97, "quadre_id": 64, "num_linies": null, "img1": null, "img2": null, "img3": null, "img4": null, "comentari": null, "mem_tecnica": null, "cups_num": null, "exp_num": null, "legalitzacio": null, "tipus_control": null }, "geometry": { "type": "MultiPoint", "coordinates": [ [ 1.907263428335355, 41.475413215756546 ] ] } }
]
}
